{
  "type": "FeatureCollection",
  "features": [
    {
      "type": "Feature",
      "properties": {
        "norad_id": 26766,
        "name": "INTELSAT 10 (IS-10)",
        "group": "intelsat",
        "lat": 8.0313996979325,
        "lon": 173.17687403851446,
        "alt_km": 36139.112518700815,
        "timestamp": "2025-12-20T22:39:10.312882+00:00",
        "meta_object_name": "INTELSAT 10 (IS-10)",
        "meta_object_id": "2001-019A",
        "meta_epoch": "2025-12-20T12:07:39.749952",
        "meta_mean_motion": 0.99074466,
        "meta_eccentricity": 0.00077669,
        "meta_inclination": 8.6468,
        "meta_ra_of_asc_node": 61.0789,
        "meta_arg_of_pericenter": 228.9556,
        "meta_mean_anomaly": 86.574,
        "meta_ephemeris_type": 0,
        "meta_classification_type": "U",
        "meta_norad_cat_id": 26766,
        "meta_element_set_no": 999,
        "meta_rev_at_epoch": 4380,
        "meta_bstar": 0,
        "meta_mean_motion_dot": -1.08e-06,
        "meta_mean_motion_ddot": 0,
        "tle_line1": "1 26766U 01019A   25354.50532118 -.00000108  00000+0  00000+0 0  9990",
        "tle_line2": "2 26766   8.6468  61.0789 0007766 228.9556  86.5740  0.99074466 43805"
      },
      "geometry": {
        "type": "Point",
        "coordinates": [
          173.17687403851446,
          8.0313996979325
        ]
      }
    },
    {
      "type": "Feature",
      "properties": {
        "norad_id": 26900,
        "name": "INTELSAT 902 (IS-902)",
        "group": "intelsat",
        "lat": -4.6074472143050995,
        "lon": 19.598006453464563,
        "alt_km": 35795.782608728325,
        "timestamp": "2025-12-20T22:39:10.312905+00:00",
        "meta_object_name": "INTELSAT 902 (IS-902)",
        "meta_object_id": "2001-039A",
        "meta_epoch": "2025-12-15T13:09:02.081664",
        "meta_mean_motion": 1.0027087,
        "meta_eccentricity": 0.00045028,
        "meta_inclination": 5.6536,
        "meta_ra_of_asc_node": 74.0372,
        "meta_arg_of_pericenter": 189.6359,
        "meta_mean_anomaly": 327.9329,
        "meta_ephemeris_type": 0,
        "meta_classification_type": "U",
        "meta_norad_cat_id": 26900,
        "meta_element_set_no": 999,
        "meta_rev_at_epoch": 8885,
        "meta_bstar": 0,
        "meta_mean_motion_dot": -2.65e-06,
        "meta_mean_motion_ddot": 0,
        "tle_line1": "1 26900U 01039A   25349.54794076 -.00000265  00000+0  00000+0 0  9997",
        "tle_line2": "2 26900   5.6536  74.0372 0004502 189.6359 327.9329  1.00270870 88858"
      },
      "geometry": {
        "type": "Point",
        "coordinates": [
          19.598006453464563,
          -4.6074472143050995
        ]
      }
    },
    {
      "type": "Feature",
      "properties": {
        "norad_id": 27380,
        "name": "INTELSAT 904 (IS-904)",
        "group": "intelsat",
        "lat": -3.5346178347333894,
        "lon": 38.24367930433788,
        "alt_km": 35785.33143479126,
        "timestamp": "2025-12-20T22:39:10.312919+00:00",
        "meta_object_name": "INTELSAT 904 (IS-904)",
        "meta_object_id": "2002-007A",
        "meta_epoch": "2025-12-20T11:22:11.801280",
        "meta_mean_motion": 1.00270947,
        "meta_eccentricity": 0.00018054,
        "meta_inclination": 6.4727,
        "meta_ra_of_asc_node": 71.3436,
        "meta_arg_of_pericenter": 248.3759,
        "meta_mean_anomaly": 268.6336,
        "meta_ephemeris_type": 0,
        "meta_classification_type": "U",
        "meta_norad_cat_id": 27380,
        "meta_element_set_no": 999,
        "meta_rev_at_epoch": 4997,
        "meta_bstar": 0,
        "meta_mean_motion_dot": -2.07e-06,
        "meta_mean_motion_ddot": 0,
        "tle_line1": "1 27380U 02007A   25354.47374770 -.00000207  00000+0  00000+0 0  9995",
        "tle_line2": "2 27380   6.4727  71.3436 0001805 248.3759 268.6336  1.00270947 49977"
      },
      "geometry": {
        "type": "Point",
        "coordinates": [
          38.24367930433788,
          -3.5346178347333894
        ]
      }
    },
    {
      "type": "Feature",
      "properties": {
        "norad_id": 27426,
        "name": "DIRECTV 5 (TEMPO 1)",
        "group": "intelsat",
        "lat": -3.919889100784489,
        "lon": -40.60560889274302,
        "alt_km": 35777.20955474772,
        "timestamp": "2025-12-20T22:39:10.312930+00:00",
        "meta_object_name": "DIRECTV 5 (TEMPO 1)",
        "meta_object_id": "2002-023A",
        "meta_epoch": "2025-12-20T10:12:17.667072",
        "meta_mean_motion": 1.00271343,
        "meta_eccentricity": 0.00031123,
        "meta_inclination": 4.4204,
        "meta_ra_of_asc_node": 77.5629,
        "meta_arg_of_pericenter": 198.0505,
        "meta_mean_anomaly": 216.5994,
        "meta_ephemeris_type": 0,
        "meta_classification_type": "U",
        "meta_norad_cat_id": 27426,
        "meta_element_set_no": 999,
        "meta_rev_at_epoch": 8633,
        "meta_bstar": 0,
        "meta_mean_motion_dot": -3.7e-07,
        "meta_mean_motion_ddot": 0,
        "tle_line1": "1 27426U 02023A   25354.42520448 -.00000037  00000+0  00000+0 0  9995",
        "tle_line2": "2 27426   4.4204  77.5629 0003112 198.0505 216.5994  1.00271343 86335"
      },
      "geometry": {
        "type": "Point",
        "coordinates": [
          -40.60560889274302,
          -3.919889100784489
        ]
      }
    },
    {
      "type": "Feature",
      "properties": {
        "norad_id": 27438,
        "name": "INTELSAT 905 (IS-905)",
        "group": "intelsat",
        "lat": -4.107192491879073,
        "lon": -67.8068735205614,
        "alt_km": 35775.655547348804,
        "timestamp": "2025-12-20T22:39:10.312942+00:00",
        "meta_object_name": "INTELSAT 905 (IS-905)",
        "meta_object_id": "2002-027A",
        "meta_epoch": "2025-12-20T10:52:51.499776",
        "meta_mean_motion": 1.00272487,
        "meta_eccentricity": 0.00026639,
        "meta_inclination": 6.3037,
        "meta_ra_of_asc_node": 71.9674,
        "meta_arg_of_pericenter": 202.299,
        "meta_mean_anomaly": 201.0262,
        "meta_ephemeris_type": 0,
        "meta_classification_type": "U",
        "meta_norad_cat_id": 27438,
        "meta_element_set_no": 999,
        "meta_rev_at_epoch": 4957,
        "meta_bstar": 0,
        "meta_mean_motion_dot": 1.12e-06,
        "meta_mean_motion_ddot": 0,
        "tle_line1": "1 27438U 02027A   25354.45337384  .00000112  00000+0  00000+0 0  9993",
        "tle_line2": "2 27438   6.3037  71.9674 0002663 202.2990 201.0262  1.00272487 49579"
      },
      "geometry": {
        "type": "Point",
        "coordinates": [
          -67.8068735205614,
          -4.107192491879073
        ]
      }
    },
    {
      "type": "Feature",
      "properties": {
        "norad_id": 27445,
        "name": "GALAXY 3C (G-3C)",
        "group": "intelsat",
        "lat": -3.174016011481689,
        "lon": -25.323004653896174,
        "alt_km": 35791.1672189477,
        "timestamp": "2025-12-20T22:39:10.312953+00:00",
        "meta_object_name": "GALAXY 3C (G-3C)",
        "meta_object_id": "2002-030A",
        "meta_epoch": "2025-12-20T11:56:05.483616",
        "meta_mean_motion": 1.00271782,
        "meta_eccentricity": 0.00011093,
        "meta_inclination": 3.2821,
        "meta_ra_of_asc_node": 80.4263,
        "meta_arg_of_pericenter": 77.7838,
        "meta_mean_anomaly": 15.2839,
        "meta_ephemeris_type": 0,
        "meta_classification_type": "U",
        "meta_norad_cat_id": 27445,
        "meta_element_set_no": 999,
        "meta_rev_at_epoch": 4470,
        "meta_bstar": 0,
        "meta_mean_motion_dot": -1.31e-06,
        "meta_mean_motion_ddot": 0,
        "tle_line1": "1 27445U 02030A   25354.49728569 -.00000131  00000+0  00000+0 0  9990",
        "tle_line2": "2 27445   3.2821  80.4263 0001109  77.7838  15.2839  1.00271782 44705"
      },
      "geometry": {
        "type": "Point",
        "coordinates": [
          -25.323004653896174,
          -3.174016011481689
        ]
      }
    },
    {
      "type": "Feature",
      "properties": {
        "norad_id": 27513,
        "name": "INTELSAT 906 (IS-906)",
        "group": "intelsat",
        "lat": 4.582488437988403,
        "lon": 133.53491901284062,
        "alt_km": 35805.633561287264,
        "timestamp": "2025-12-20T22:39:10.312964+00:00",
        "meta_object_name": "INTELSAT 906 (IS-906)",
        "meta_object_id": "2002-041A",
        "meta_epoch": "2025-12-19T20:34:46.617600",
        "meta_mean_motion": 1.00272721,
        "meta_eccentricity": 0.00063182,
        "meta_inclination": 5.3475,
        "meta_ra_of_asc_node": 75.1475,
        "meta_arg_of_pericenter": 198.3862,
        "meta_mean_anomaly": 187.9892,
        "meta_ephemeris_type": 0,
        "meta_classification_type": "U",
        "meta_norad_cat_id": 27513,
        "meta_element_set_no": 999,
        "meta_rev_at_epoch": 8523,
        "meta_bstar": 0,
        "meta_mean_motion_dot": 3.3e-07,
        "meta_mean_motion_ddot": 0,
        "tle_line1": "1 27513U 02041A   25353.85748400  .00000033  00000+0  00000+0 0  9993",
        "tle_line2": "2 27513   5.3475  75.1475 0006318 198.3862 187.9892  1.00272721 85232"
      },
      "geometry": {
        "type": "Point",
        "coordinates": [
          133.53491901284062,
          4.582488437988403
        ]
      }
    }
  ]
}